FENGYUN 1C DEB          
1 31552U 99025BYT 25326.30142117  .00013704  00000+0  37467-2 0  9991
2 31552  98.6225  87.8374 0087449  83.6478 277.4664 14.45086865955816
FENGYUN 1C DEB          
1 31553U 99025BYU 25326.68494169  .00004024  00000+0  15716-2 0  9998
2 31553  99.0029  20.7537 0031146 154.6444 334.8153 14.29917104956235
FENGYUN 1C DEB          
1 31555U 99025BYW 25324.61396145  .00006226  00000+0  15904-2 0  9991
2 31555  99.1020 277.2118 0155151 262.5281  95.8257 14.43886978962443
FENGYUN 1C DEB          
1 31558U 99025BYZ 25323.64719823  .00001445  00000+0  37777-3 0  9999
2 31558  98.7913 218.4524 0211773 331.0078  56.6716 14.38611703971035
FENGYUN 1C DEB          
1 31559U 99025BZA 25326.12030389  .00009819  00000+0  18793-2 0  9998
2 31559  98.8653 278.6927 0054545 259.0627 165.6248 14.63105287972556
FENGYUN 1C DEB          
1 31560U 99025BZB 25326.35190071  .00000115  00000+0  67533-4 0  9998
2 31560  98.5918   3.0172 0120963   7.7654 352.5360 14.21213864963295
FENGYUN 1C DEB          
1 31561U 99025BZC 25325.47083838  .00000712  00000+0  48160-3 0  9990
2 31561  98.7152 322.4243 0055812 243.0275 271.4786 14.02721317948806
FENGYUN 1C DEB          
1 31562U 99025BZD 25326.25795789  .00003135  00000+0  95469-3 0  9999
2 31562  99.2576 116.0814 0057064 343.8900  16.0471 14.41893448966957
FENGYUN 1C DEB          
1 31563U 99025BZE 25326.37117726  .00006324  00000+0  10800-2 0  9990
2 31563  98.9510 118.0618 0114356 141.3768 219.5683 14.65066715982461
FENGYUN 1C DEB          
1 31565U 99025BZG 25319.88571780  .00012072  00000+0  39175-2 0  9997
2 31565 100.7164 185.3982 0053675  96.0201 264.7099 14.38250845639679
FENGYUN 1C DEB          
1 31566U 99025BZH 25326.41927819  .00006682  00000+0  22578-2 0  9992
2 31566  98.9492  24.5234 0024117  59.4548  72.4035 14.37060666960997
FENGYUN 1C DEB          
1 31567U 99025BZJ 25324.82650605  .00004814  00000+0  32732-2 0  9990
2 31567 102.3185 184.3639 0187627   0.8082 359.3336 13.92608268671042
FENGYUN 1C DEB          
1 31568U 99025BZK 25326.88053253  .00004216  00000+0  25754-2 0  9997
2 31568 102.0430 202.6328 0122266 171.6248 188.6986 14.03134424943015
FENGYUN 1C DEB          
1 31569U 99025BZL 25326.38104889  .00003782  00000+0  25095-2 0  9990
2 31569 102.6179 116.1850 0172979  55.2158 335.4144 13.95349420933958
FENGYUN 1C DEB          
1 31570U 99025BZM 25326.89068573  .00005761  00000+0  22139-2 0  9992
2 31570 102.5651 357.3528 0152330 272.5279  85.8455 14.24882911630845
FENGYUN 1C DEB          
1 31608U 99025BZN 25321.07963929  .00016010  00000+0  15321-2 0  9992
2 31608  98.3786  77.8678 0147960 120.2027 241.3935 14.85323583982520
FENGYUN 1C DEB          
1 31609U 99025BZP 25322.04662573  .00005095  00000+0  25197-2 0  9995
2 31609  99.2198 349.7413 0095466  30.5937  24.4650 14.15440161657351
FENGYUN 1C DEB          
1 31612U 99025BZS 25315.19015760  .00168145  00000+0  22078-2 0  9998
2 31612 100.3380 216.2756 0035773 204.7064 155.2470 15.57170512996694
FENGYUN 1C DEB          
1 31613U 99025BZT 25323.51409443  .00002123  00000+0  18406-2 0  9992
2 31613  98.4239 153.6199 0343010 167.5761 193.4115 13.63344760914453
FENGYUN 1C DEB          
1 31614U 99025BZU 25326.23866698  .00090298  00000+0  85910-2 0  9998
2 31614  98.9743 229.0944 0025380  52.8996  70.1751 14.92734130961230
FENGYUN 1C DEB          
1 31615U 99025BZV 25326.37126875  .00011018  00000+0  33336-2 0  9998
2 31615  99.1376  16.6114 0166317  16.9678 343.6976 14.34797107649867
FENGYUN 1C DEB          
1 31618U 99025BZY 25321.15828386  .00001123  00000+0  47727-3 0  9994
2 31618  99.4419 102.3293 0158002  38.3391 322.8891 14.20973428699018
FENGYUN 1C DEB          
1 31619U 99025BZZ 25326.50464766  .00037711  00000+0  42364-2 0  9990
2 31619  99.0755 156.3047 0099032 356.8697   3.1881 14.83077438631882
FENGYUN 1C DEB          
1 31620U 99025CAA 25319.50748080  .00009377  00000+0  31849-2 0  9991
2 31620  98.8882  42.7077 0022038 124.6550 235.6717 14.36705007654539
FENGYUN 1C DEB          
1 31622U 99025CAC 25326.20892794  .00006958  00000+0  23643-2 0  9995
2 31622  98.8176  60.4816 0015603  48.3806  20.3350 14.36855385954777
FENGYUN 1C DEB          
1 31623U 99025CAD 25326.84815618  .00000446  00000+0  37916-3 0  9991
2 31623  97.6324 182.1780 0195352  61.4975 300.5703 13.82569129576453
FENGYUN 1C DEB          
1 31625U 99025CAF 25326.47009322  .00000866  00000+0  18309-3 0  9990
2 31625  98.8072  51.3958 0150195  77.1776 343.5935 14.55351228980982
FENGYUN 1C DEB          
1 31627U 99025CAH 25312.88690847  .00005035  00000+0  17490-2 0  9992
2 31627  98.5326   1.1405 0050504 253.6733 105.8895 14.35222016642811
FENGYUN 1C DEB          
1 31628U 99025CAJ 25324.33509353  .00002363  00000+0  18614-2 0  9997
2 31628 102.2697 172.2570 0171383 273.3683  84.7871 13.86667922929890
FENGYUN 1C DEB          
1 31629U 99025CAK 25327.05991153  .00004394  00000+0  22116-2 0  9991
2 31629 102.1334   6.0158 0105096  77.5856 283.7043 14.14378452941680
FENGYUN 1C DEB          
1 31630U 99025CAL 25324.20290454  .00015996  00000+0  81180-3 0  9990
2 31630  98.0904 130.6193 0169008  72.0715 289.8855 15.05337914982512
FENGYUN 1C DEB          
1 31631U 99025CAM 25325.96638776  .00041250  00000+0  68205-2 0  9992
2 31631  99.3482 233.7882 0069578  33.0729 327.4795 14.68568495636674
FENGYUN 1C DEB          
1 31633U 99025CAP 25319.86374405  .00001907  00000+0  11593-2 0  9995
2 31633  98.7152 335.0833 0065691 248.7649 110.6494 14.06334417567064
FENGYUN 1C DEB          
1 31634U 99025CAQ 25323.39002800  .00000363  00000+0  29606-3 0  9996
2 31634  99.3696   9.5422 0091233 220.8186 138.6117 13.94641480561984
FENGYUN 1C DEB          
1 31639U 99025CAV 25325.66435363  .00000115  00000+0  12405-3 0  9991
2 31639  98.7396 273.0219 0160652 202.4545 283.9534 13.85154304933960
FENGYUN 1C DEB          
1 31642U 99025CAY 25325.19581244  .00000962  00000+0  33806-3 0  9991
2 31642  98.5060  47.7652 0119227 320.8135  38.4461 14.33337801967103
FENGYUN 1C DEB          
1 31644U 99025CBA 25325.52982934  .00008195  00000+0  12165-2 0  9991
2 31644  98.6708 214.1231 0154232 249.7824 233.9489 14.67516409707336
FENGYUN 1C DEB          
1 31655U 99025CBM 25326.34464315  .00002878  00000+0  27787-2 0  9990
2 31655  99.2866 273.1301 0288743 191.3099 321.8691 13.63717418594417
FENGYUN 1C DEB          
1 31656U 99025CBN 25325.94374758  .00008511  00000+0  23661-2 0  9994
2 31656  99.1925 312.9725 0022244 110.7123 276.5591 14.46550954961550
FENGYUN 1C DEB          
1 31657U 99025CBP 25324.43978292  .00003945  00000+0  26536-2 0  9991
2 31657 102.2151 221.5958 0141907 108.5837 253.0786 13.96755595625539
FENGYUN 1C DEB          
1 31658U 99025CBQ 25327.05442411  .00004019  00000+0  23180-2 0  9997
2 31658  98.1512 178.3050 0215649  17.7455 343.1096 13.98561319695418
FENGYUN 1C DEB          
1 31660U 99025CBS 25325.78752400  .00001726  00000+0  68849-3 0  9994
2 31660  98.5056 327.7074 0100993 242.4670 116.6221 14.27033891 76176
FENGYUN 1C DEB          
1 31661U 99025CBT 25326.17657895  .00004771  00000+0  20147-2 0  9992
2 31661  98.8611  45.0526 0056802 282.9405 106.3064 14.25198547954201
FENGYUN 1C DEB          
1 31663U 99025CBV 25323.99706848  .00003401  00000+0  37324-3 0  9999
2 31663  98.8369 229.7226 0190487 309.4095  49.0379 14.76191286989444
FENGYUN 1C DEB          
1 31664U 99025CBW 25325.45141064  .00000629  00000+0  35320-3 0  9999
2 31664  98.7515 317.5314 0123876 218.4908 140.7379 14.10259480957017
FENGYUN 1C DEB          
1 31665U 99025CBX 25323.60903513  .00001816  00000+0  14362-2 0  9991
2 31665  98.4511   8.8494 0188315 250.1389 107.9387 13.84721038928717
FENGYUN 1C DEB          
1 31666U 99025CBY 25325.19221271  .00041474  00000+0  51884-2 0  9996
2 31666  98.6572 112.0961 0027645 218.5879 141.3356 14.81861875969528
FENGYUN 1C DEB          
1 31667U 99025CBZ 25304.80321163  .00000752  00000+0  34768-3 0  9990
2 31667  99.0893 155.4338 0050202 207.0568 152.7991 14.23424932553965
FENGYUN 1C DEB          
1 31672U 99025CCE 25320.26638237  .00009590  00000+0  22820-2 0  9991
2 31672  98.9581 146.1675 0108524  61.2138 299.9903 14.50483956644877
FENGYUN 1C DEB          
1 31673U 99025CCF 25326.49004632  .00000662  00000+0  24429-3 0  9998
2 31673  99.3753 159.3409 0125863 106.9514 254.5507 14.31905981646016
FENGYUN 1C DEB          
1 31674U 99025CCG 25319.36105436  .00012422  00000+0  31320-2 0  9995
2 31674  98.9286 353.9928 0024137  11.8653 348.3104 14.51066662642175
FENGYUN 1C DEB          
1 31678U 99025CCL 25319.53580765  .00011967  00000+0  18632-2 0  9994
2 31678  98.7994  67.3461 0261372 110.3351 252.6133 14.52720647964442
FENGYUN 1C DEB          
1 31680U 99025CCN 25315.99839605  .00033843  00000+0  13766-2 0  9993
2 31680  99.8376  54.0633 0078752  30.7347 329.8458 15.21598572997274
FENGYUN 1C DEB          
1 31685U 99025CCT 25320.31009414  .00000255  00000+0  16975-3 0  9994
2 31685  98.7344 345.3248 0015711 305.0354  54.9342 14.09645044947176
FENGYUN 1C DEB          
1 31686U 99025CCU 25317.65960839  .00028076  00000+0  23870-2 0  9997
2 31686  98.1542  29.1504 0285472 181.9013 178.1134 14.71245000973915
FENGYUN 1C DEB          
1 31688U 99025CCW 25321.43131566  .00000552  00000+0  37953-3 0  9994
2 31688  98.9704  15.9126 0074792 211.6104 148.0559 14.02307906949234
FENGYUN 1C DEB          
1 31691U 99025CCZ 25322.51580445  .00005646  00000+0  23501-2 0  9994
2 31691  98.8829  48.6206 0058942 309.6021  49.9962 14.25798130637668
FENGYUN 1C DEB          
1 31692U 99025CDA 25325.78494190  .00005883  00000+0  27832-2 0  9992
2 31692  99.1753 321.5699 0087645 141.2540 219.4964 14.18044165579122
FENGYUN 1C DEB          
1 31695U 99025CDD 25324.50456394  .00009092  00000+0  11134-2 0  9992
2 31695  98.2669  48.4012 0176378 299.5373  58.8350 14.72941543656449
FENGYUN 1C DEB          
1 31714U 99025CDM 25325.63863997  .00056392  00000+0  65723-2 0  9998
2 31714  99.0342 222.9765 0025015   5.5103  64.7130 14.84742245957367
